{
    "links": {
        "self": "http://www.neowsapp.com/rest/v1/neo/3265792?api_key=iIulBulltgU6a56xZRHN4H3l9WmuAYTsLGpBGhQ2"
    },
    "id": "3265792",
    "neo_reference_id": "3265792",
    "name": "(2005 AQ19)",
    "designation": "2005 AQ19",
    "nasa_jpl_url": "http://ssd.jpl.nasa.gov/sbdb.cgi?sstr=3265792",
    "absolute_magnitude_h": 21.4,
    "estimated_diameter": {
        "kilometers": {
            "estimated_diameter_min": 0.1394938229,
            "estimated_diameter_max": 0.3119176705
        },
        "meters": {
            "estimated_diameter_min": 139.4938229344,
            "estimated_diameter_max": 311.9176705226
        },
        "miles": {
            "estimated_diameter_min": 0.0866774163,
            "estimated_diameter_max": 0.1938165949
        },
        "feet": {
            "estimated_diameter_min": 457.6569140361,
            "estimated_diameter_max": 1023.3519701574
        }
    },
    "is_potentially_hazardous_asteroid": false,
    "close_approach_data": [
        {
            "close_approach_date": "2005-01-21",
            "close_approach_date_full": "2005-Jan-21 03:35",
            "epoch_date_close_approach": 1106278500000,
            "relative_velocity": {
                "kilometers_per_second": "8.6159985777",
                "kilometers_per_hour": "31017.5948797727",
                "miles_per_hour": "19273.1272184899"
            },
            "miss_distance": {
                "astronomical": "0.2951188428",
                "lunar": "114.8012298492",
                "kilometers": "44149150.279744836",
                "miles": "27433009.8982612968"
            },
            "orbiting_body": "Earth"
        }
    ],
    "orbital_data": {
        "orbit_id": "9",
        "orbit_determination_date": "2017-04-06 09:11:36",
        "first_observation_date": "2005-01-13",
        "last_observation_date": "2005-02-05",
        "data_arc_in_days": 23,
        "observations_used": 26,
        "orbit_uncertainty": "7",
        "minimum_orbit_intersection": ".260643",
        "jupiter_tisserand_invariant": "4.057",
        "epoch_osculation": "2459000.5",
        "eccentricity": ".2912947369815058",
        "semi_major_axis": "1.736251556243502",
        "inclination": "16.48561004346162",
        "ascending_node_longitude": "123.9433735779435",
        "orbital_period": "835.636495187477",
        "perihelion_distance": "1.230490615833821",
        "perihelion_argument": "336.3015576130445",
        "aphelion_distance": "2.242012496653183",
        "perihelion_time": "2459209.566284679401",
        "mean_anomaly": "269.9322936252337",
        "mean_motion": ".4308093316571019",
        "equinox": "J2000",
        "orbit_class": {
            "orbit_class_type": "AMO",
            "orbit_class_description": "Near-Earth asteroid orbits similar to that of 1221 Amor",
            "orbit_class_range": "1.017 AU < q (perihelion) < 1.3 AU"
        }
    },
    "is_sentry_object": false
}